{"type": "FeatureCollection", "features": [ {"type": "Feature", "properties": {"norad_id": 35435, "name": "COSMOS 2251 DEB", "group": "cosmos-2251-debris", "lat": -31.19125498415841, "lon": 114.05920882855371, "alt_km": 644.2759880894237, "timestamp": "2025-12-02T13:52:17.657404+00:00", "meta": {"OBJECT_NAME": "COSMOS 2251 DEB", "OBJECT_ID": "1993-036AKD", "EPOCH": "2025-12-01T04:42:29.570112", "MEAN_MOTION": 14.77856988, "ECCENTRICITY": 0.0009617, "INCLINATION": 74.0095, "RA_OF_ASC_NODE": 126.7727, "ARG_OF_PERICENTER": 217.2149, "MEAN_ANOMALY": 321.5063, "EPHEMERIS_TYPE": 0, "CLASSIFICATION_TYPE": "U", "NORAD_CAT_ID": 35435, "ELEMENT_SET_NO": 999, "REV_AT_EPOCH": 87368, "BSTAR": 0.0028899, "MEAN_MOTION_DOT": 0.00020833, "MEAN_MOTION_DDOT": 0}, "tle": {"line1": "1 35435U 93036AKD 25335.19617558  .00020833  00000+0  28899-2 0  9994", "line2": "2 35435  74.0095 126.7727 0009617 217.2149 321.5063 14.77856988873683"}}, "geometry": {"type": "Point", "coordinates": [114.05920882855371, -31.19125498415841]}}, {"type": "Feature", "properties": {"norad_id": 35439, "name": "COSMOS 2251 DEB", "group": "cosmos-2251-debris", "lat": 39.114749246933016, "lon": -41.3270193908631, "alt_km": 1091.390236210149, "timestamp": "2025-12-02T13:52:17.657414+00:00", "meta": {"OBJECT_NAME": "COSMOS 2251 DEB", "OBJECT_ID": "1993-036AKH", "EPOCH": "2025-12-02T05:27:33.223968", "MEAN_MOTION": 13.92736992, "ECCENTRICITY": 0.02416285, "INCLINATION": 74.0171, "RA_OF_ASC_NODE": 152.7492, "ARG_OF_PERICENTER": 324.3535, "MEAN_ANOMALY": 217.5666, "EPHEMERIS_TYPE": 0, "CLASSIFICATION_TYPE": "U", "NORAD_CAT_ID": 35439, "ELEMENT_SET_NO": 999, "REV_AT_EPOCH": 83814, "BSTAR": 0.0017361828, "MEAN_MOTION_DOT": 2.829e-05, "MEAN_MOTION_DDOT": 0}, "tle": {"line1": "1 35439U 93036AKH 25336.22746787  .00002829  00000+0  17362-2 0  9998", "line2": "2 35439  74.0171 152.7492 0241628 324.3535 217.5666 13.92736992838142"}}, "geometry": {"type": "Point", "coordinates": [-41.3270193908631, 39.114749246933016]}}, {"type": "Feature", "properties": {"norad_id": 35440, "name": "COSMOS 2251 DEB", "group": "cosmos-2251-debris", "lat": -46.22521965221266, "lon": -150.0914476817937, "alt_km": 646.4787309363683, "timestamp": "2025-12-02T13:52:17.657424+00:00", "meta": {"OBJECT_NAME": "COSMOS 2251 DEB", "OBJECT_ID": "1993-036AKJ", "EPOCH": "2025-12-01T23:22:39.601344", "MEAN_MOTION": 14.68713507, "ECCENTRICITY": 0.00688977, "INCLINATION": 74.0163, "RA_OF_ASC_NODE": 228.485, "ARG_OF_PERICENTER": 11.896, "MEAN_ANOMALY": 348.3817, "EPHEMERIS_TYPE": 0, "CLASSIFICATION_TYPE": "U", "NORAD_CAT_ID": 35440, "ELEMENT_SET_NO": 999, "REV_AT_EPOCH": 68607, "BSTAR": 0.0006228083, "MEAN_MOTION_DOT": 3.729e-05, "MEAN_MOTION_DDOT": 0}, "tle": {"line1": "1 35440U 93036AKJ 25335.97406946  .00003729  00000+0  62281-3 0  9992", "line2": "2 35440  74.0163 228.4850 0068897  11.8960 348.3817 14.68713507686074"}}, "geometry": {"type": "Point", "coordinates": [-150.0914476817937, -46.22521965221266]}}, {"type": "Feature", "properties": {"norad_id": 35441, "name": "COSMOS 2251 DEB", "group": "cosmos-2251-debris", "lat": 41.745148198335336, "lon": 122.7503151250703, "alt_km": 678.0253849450519, "timestamp": "2025-12-02T13:52:17.657435+00:00", "meta": {"OBJECT_NAME": "COSMOS 2251 DEB", "OBJECT_ID": "1993-036AKK", "EPOCH": "2025-12-02T05:02:18.600864", "MEAN_MOTION": 14.62302982, "ECCENTRICITY": 0.00376917, "INCLINATION": 74.1346, "RA_OF_ASC_NODE": 318.1524, "ARG_OF_PERICENTER": 218.5218, "MEAN_ANOMALY": 141.3259, "EPHEMERIS_TYPE": 0, "CLASSIFICATION_TYPE": "U", "NORAD_CAT_ID": 35441, "ELEMENT_SET_NO": 999, "REV_AT_EPOCH": 87276, "BSTAR": 0.0020248818, "MEAN_MOTION_DOT": 0.00010311, "MEAN_MOTION_DDOT": 0}, "tle": {"line1": "1 35441U 93036AKK 25336.20993751  .00010311  00000+0  20249-2 0  9997", "line2": "2 35441  74.1346 318.1524 0037691 218.5218 141.3259 14.62302982872763"}}, "geometry": {"type": "Point", "coordinates": [122.7503151250703, 41.745148198335336]}}, {"type": "Feature", "properties": {"norad_id": 35442, "name": "COSMOS 2251 DEB", "group": "cosmos-2251-debris", "lat": -49.53904375665296, "lon": 99.66824509404597, "alt_km": 627.4514997130773, "timestamp": "2025-12-02T13:52:17.657458+00:00", "meta": {"OBJECT_NAME": "COSMOS 2251 DEB", "OBJECT_ID": "1993-036AKL", "EPOCH": "2025-12-02T02:46:45.175296", "MEAN_MOTION": 14.8366998, "ECCENTRICITY": 0.00046371, "INCLINATION": 74.0255, "RA_OF_ASC_NODE": 120.209, "ARG_OF_PERICENTER": 134.2231, "MEAN_ANOMALY": 225.9329, "EPHEMERIS_TYPE": 0, "CLASSIFICATION_TYPE": "U", "NORAD_CAT_ID": 35442, "ELEMENT_SET_NO": 999, "REV_AT_EPOCH": 87195, "BSTAR": 0.0035193609, "MEAN_MOTION_DOT": 0.0002917, "MEAN_MOTION_DDOT": 0}, "tle": {"line1": "1 35442U 93036AKL 25336.11580064  .00029170  00000+0  35194-2 0  9995", "line2": "2 35442  74.0255 120.2090 0004637 134.2231 225.9329 14.83669980871959"}}, "geometry": {"type": "Point", "coordinates": [99.66824509404597, -49.53904375665296]}}, {"type": "Feature", "properties": {"norad_id": 35443, "name": "COSMOS 2251 DEB", "group": "cosmos-2251-debris", "lat": -72.86941463030449, "lon": -119.10812969790634, "alt_km": 618.5110231613935, "timestamp": "2025-12-02T13:52:17.657471+00:00", "meta": {"OBJECT_NAME": "COSMOS 2251 DEB", "OBJECT_ID": "1993-036AKM", "EPOCH": "2025-12-01T19:02:20.169600", "MEAN_MOTION": 14.95343582, "ECCENTRICITY": 0.00741438, "INCLINATION": 73.9873, "RA_OF_ASC_NODE": 353.7737, "ARG_OF_PERICENTER": 139.118, "MEAN_ANOMALY": 221.5599, "EPHEMERIS_TYPE": 0, "CLASSIFICATION_TYPE": "U", "NORAD_CAT_ID": 35443, "ELEMENT_SET_NO": 999, "REV_AT_EPOCH": 86714, "BSTAR": 0.0031171184, "MEAN_MOTION_DOT": 0.00036482, "MEAN_MOTION_DDOT": 0}, "tle": {"line1": "1 35443U 93036AKM 25335.79328900  .00036482  00000+0  31171-2 0  9993", "line2": "2 35443  73.9873 353.7737 0074143 139.1180 221.5599 14.95343582867148"}}, "geometry": {"type": "Point", "coordinates": [-119.10812969790634, -72.86941463030449]}}, {"type": "Feature", "properties": {"norad_id": 35445, "name": "COSMOS 2251 DEB", "group": "cosmos-2251-debris", "lat": -32.02978275761087, "lon": 149.6896415463322, "alt_km": 800.5558821672757, "timestamp": "2025-12-02T13:52:17.657482+00:00", "meta": {"OBJECT_NAME": "COSMOS 2251 DEB", "OBJECT_ID": "1993-036AKP", "EPOCH": "2025-12-01T05:37:58.814400", "MEAN_MOTION": 14.58784895, "ECCENTRICITY": 0.0143608, "INCLINATION": 74.0353, "RA_OF_ASC_NODE": 321.9314, "ARG_OF_PERICENTER": 51.7494, "MEAN_ANOMALY": 309.6492, "EPHEMERIS_TYPE": 0, "CLASSIFICATION_TYPE": "U", "NORAD_CAT_ID": 35445, "ELEMENT_SET_NO": 999, "REV_AT_EPOCH": 87161, "BSTAR": 0.0018521, "MEAN_MOTION_DOT": 9.974e-05, "MEAN_MOTION_DDOT": 0}, "tle": {"line1": "1 35445U 93036AKP 25335.23470850  .00009974  00000+0  18521-2 0  9996", "line2": "2 35445  74.0353 321.9314 0143608  51.7494 309.6492 14.58784895871615"}}, "geometry": {"type": "Point", "coordinates": [149.6896415463322, -32.02978275761087]}}, {"type": "Feature", "properties": {"norad_id": 35446, "name": "COSMOS 2251 DEB", "group": "cosmos-2251-debris", "lat": 45.36302065453212, "lon": -5.762180967989899, "alt_km": 672.7893916550447, "timestamp": "2025-12-02T13:52:17.657493+00:00", "meta": {"OBJECT_NAME": "COSMOS 2251 DEB", "OBJECT_ID": "1993-036AKQ", "EPOCH": "2025-11-30T07:11:01.736160", "MEAN_MOTION": 14.5460995, "ECCENTRICITY": 0.00744354, "INCLINATION": 74.0466, "RA_OF_ASC_NODE": 341.7043, "ARG_OF_PERICENTER": 103.5149, "MEAN_ANOMALY": 257.4321, "EPHEMERIS_TYPE": 0, "CLASSIFICATION_TYPE": "U", "NORAD_CAT_ID": 35446, "ELEMENT_SET_NO": 999, "REV_AT_EPOCH": 87827, "BSTAR": 0.00010353473, "MEAN_MOTION_DOT": 4.29e-06, "MEAN_MOTION_DDOT": 0}, "tle": {"line1": "1 35446U 93036AKQ 25334.29932565  .00000429  00000+0  10353-3 0  9990", "line2": "2 35446  74.0466 341.7043 0074435 103.5149 257.4321 14.54609950878278"}}, "geometry": {"type": "Point", "coordinates": [-5.762180967989899, 45.36302065453212]}}, {"type": "Feature", "properties": {"norad_id": 35448, "name": "COSMOS 2251 DEB", "group": "cosmos-2251-debris", "lat": -69.53381210402844, "lon": 58.18153717629094, "alt_km": 711.5633046221546, "timestamp": "2025-12-02T13:52:17.657503+00:00", "meta": {"OBJECT_NAME": "COSMOS 2251 DEB", "OBJECT_ID": "1993-036AKS", "EPOCH": "2025-11-30T02:46:57.396576", "MEAN_MOTION": 14.54072836, "ECCENTRICITY": 0.00108374, "INCLINATION": 73.9021, "RA_OF_ASC_NODE": 113.5661, "ARG_OF_PERICENTER": 293.2846, "MEAN_ANOMALY": 66.7175, "EPHEMERIS_TYPE": 0, "CLASSIFICATION_TYPE": "U", "NORAD_CAT_ID": 35448, "ELEMENT_SET_NO": 999, "REV_AT_EPOCH": 87151, "BSTAR": 0.0011243379, "MEAN_MOTION_DOT": 4.725e-05, "MEAN_MOTION_DDOT": 0}, "tle": {"line1": "1 35448U 93036AKS 25334.11594209  .00004725  00000+0  11243-2 0  9993", "line2": "2 35448  73.9021 113.5661 0010837 293.2846  66.7175 14.54072836871518"}}, "geometry": {"type": "Point", "coordinates": [58.18153717629094, -69.53381210402844]}}, {"type": "Feature", "properties": {"norad_id": 35451, "name": "COSMOS 2251 DEB", "group": "cosmos-2251-debris", "lat": -54.14149707104205, "lon": -31.900731511418496, "alt_km": 489.7418869097546, "timestamp": "2025-12-02T13:52:17.657514+00:00", "meta": {"OBJECT_NAME": "COSMOS 2251 DEB", "OBJECT_ID": "1993-036AKV", "EPOCH": "2025-12-01T10:13:47.469504", "MEAN_MOTION": 15.33908779, "ECCENTRICITY": 0.00396196, "INCLINATION": 73.9311, "RA_OF_ASC_NODE": 127.0764, "ARG_OF_PERICENTER": 15.9869, "MEAN_ANOMALY": 344.2575, "EPHEMERIS_TYPE": 0, "CLASSIFICATION_TYPE": "U", "NORAD_CAT_ID": 35451, "ELEMENT_SET_NO": 999, "REV_AT_EPOCH": 67232, "BSTAR": 0.0018622574, "MEAN_MOTION_DOT": 0.00063135, "MEAN_MOTION_DDOT": 0}, "tle": {"line1": "1 35451U 93036AKV 25335.42624386  .00063135  00000+0  18623-2 0  9991", "line2": "2 35451  73.9311 127.0764 0039619  15.9869 344.2575 15.33908779672329"}}, "geometry": {"type": "Point", "coordinates": [-31.900731511418496, -54.14149707104205]}}]}